{
  "type": "FeatureCollection",
  "features": [
    {
      "type": "Feature",
      "properties": {
        "norad_id": 34908,
        "name": "COSMOS 2251 DEB",
        "group": "cosmos-2251-debris",
        "lat": 72.3147421911275,
        "lon": 66.75887172984207,
        "alt_km": 748.0149964632255,
        "timestamp": "2025-12-23T22:42:33.381237+00:00",
        "meta_object_name": "COSMOS 2251 DEB",
        "meta_object_id": "1993-036ADD",
        "meta_epoch": "2025-12-22T07:59:02.454720",
        "meta_mean_motion": 14.3742634,
        "meta_eccentricity": 0.00405228,
        "meta_inclination": 74.0578,
        "meta_ra_of_asc_node": 6.0278,
        "meta_arg_of_pericenter": 19.2122,
        "meta_mean_anomaly": 356.2877,
        "meta_ephemeris_type": 0,
        "meta_classification_type": "U",
        "meta_norad_cat_id": 34908,
        "meta_element_set_no": 999,
        "meta_rev_at_epoch": 87417,
        "meta_bstar": 0.00050310259,
        "meta_mean_motion_dot": 1.493e-05,
        "meta_mean_motion_ddot": 0,
        "tle_line1": "1 34908U 93036ADD 25356.33266730  .00001493  00000+0  50310-3 0  9994",
        "tle_line2": "2 34908  74.0578   6.0278 0040522  19.2122 356.2877 14.37426340874179"
      },
      "geometry": {
        "type": "Point",
        "coordinates": [
          66.75887172984207,
          72.3147421911275
        ]
      }
    },
    {
      "type": "Feature",
      "properties": {
        "norad_id": 34909,
        "name": "COSMOS 2251 DEB",
        "group": "cosmos-2251-debris",
        "lat": 43.61771093681221,
        "lon": 70.3930549245347,
        "alt_km": 677.924969841225,
        "timestamp": "2025-12-23T22:42:33.381247+00:00",
        "meta_object_name": "COSMOS 2251 DEB",
        "meta_object_id": "1993-036ADE",
        "meta_epoch": "2025-12-22T10:45:29.037600",
        "meta_mean_motion": 14.77909001,
        "meta_eccentricity": 0.00838548,
        "meta_inclination": 74.0141,
        "meta_ra_of_asc_node": 57.4844,
        "meta_arg_of_pericenter": 191.04,
        "meta_mean_anomaly": 168.894,
        "meta_ephemeris_type": 0,
        "meta_classification_type": "U",
        "meta_norad_cat_id": 34909,
        "meta_element_set_no": 999,
        "meta_rev_at_epoch": 66995,
        "meta_bstar": 0.00051867971,
        "meta_mean_motion_dot": 3.926e-05,
        "meta_mean_motion_ddot": 0,
        "tle_line1": "1 34909U 93036ADE 25356.44825275  .00003926  00000+0  51868-3 0  9994",
        "tle_line2": "2 34909  74.0141  57.4844 0083854 191.0400 168.8940 14.77909001669958"
      },
      "geometry": {
        "type": "Point",
        "coordinates": [
          70.3930549245347,
          43.61771093681221
        ]
      }
    },
    {
      "type": "Feature",
      "properties": {
        "norad_id": 34910,
        "name": "COSMOS 2251 DEB",
        "group": "cosmos-2251-debris",
        "lat": 65.9372370768354,
        "lon": -136.63159730670446,
        "alt_km": 1111.557142898917,
        "timestamp": "2025-12-23T22:42:33.381257+00:00",
        "meta_object_name": "COSMOS 2251 DEB",
        "meta_object_id": "1993-036ADF",
        "meta_epoch": "2025-12-21T14:51:00.254880",
        "meta_mean_motion": 13.37701578,
        "meta_eccentricity": 0.0467839,
        "meta_inclination": 73.8764,
        "meta_ra_of_asc_node": 87.4128,
        "meta_arg_of_pericenter": 204.8988,
        "meta_mean_anomaly": 224.1409,
        "meta_ephemeris_type": 0,
        "meta_classification_type": "U",
        "meta_norad_cat_id": 34910,
        "meta_element_set_no": 999,
        "meta_rev_at_epoch": 81643,
        "meta_bstar": 0.00088658,
        "meta_mean_motion_dot": 8.55e-06,
        "meta_mean_motion_ddot": 0,
        "tle_line1": "1 34910U 93036ADF 25355.61875295  .00000855  00000+0  88658-3 0  9996",
        "tle_line2": "2 34910  73.8764  87.4128 0467839 204.8988 224.1409 13.37701578816436"
      },
      "geometry": {
        "type": "Point",
        "coordinates": [
          -136.63159730670446,
          65.9372370768354
        ]
      }
    },
    {
      "type": "Feature",
      "properties": {
        "norad_id": 34911,
        "name": "COSMOS 2251 DEB",
        "group": "cosmos-2251-debris",
        "lat": 58.540463616496034,
        "lon": 15.50120908138999,
        "alt_km": 728.2072991720115,
        "timestamp": "2025-12-23T22:42:33.381267+00:00",
        "meta_object_name": "COSMOS 2251 DEB",
        "meta_object_id": "1993-036ADG",
        "meta_epoch": "2025-12-22T09:09:13.653792",
        "meta_mean_motion": 14.59385987,
        "meta_eccentricity": 0.00840574,
        "meta_inclination": 74.0405,
        "meta_ra_of_asc_node": 226.3694,
        "meta_arg_of_pericenter": 349.3785,
        "meta_mean_anomaly": 189.5016,
        "meta_ephemeris_type": 0,
        "meta_classification_type": "U",
        "meta_norad_cat_id": 34911,
        "meta_element_set_no": 999,
        "meta_rev_at_epoch": 88727,
        "meta_bstar": 0.00010848035,
        "meta_mean_motion_dot": 5.07e-06,
        "meta_mean_motion_ddot": 0,
        "tle_line1": "1 34911U 93036ADG 25356.38140803  .00000507  00000+0  10848-3 0  9992",
        "tle_line2": "2 34911  74.0405 226.3694 0084057 349.3785 189.5016 14.59385987887276"
      },
      "geometry": {
        "type": "Point",
        "coordinates": [
          15.50120908138999,
          58.540463616496034
        ]
      }
    },
    {
      "type": "Feature",
      "properties": {
        "norad_id": 34913,
        "name": "COSMOS 2251 DEB",
        "group": "cosmos-2251-debris",
        "lat": -21.622036366425963,
        "lon": 88.4812286396831,
        "alt_km": 795.613122259133,
        "timestamp": "2025-12-23T22:42:33.381278+00:00",
        "meta_object_name": "COSMOS 2251 DEB",
        "meta_object_id": "1993-036ADJ",
        "meta_epoch": "2025-12-21T12:00:36.342432",
        "meta_mean_motion": 14.34639943,
        "meta_eccentricity": 0.00207047,
        "meta_inclination": 74.0285,
        "meta_ra_of_asc_node": 266.4434,
        "meta_arg_of_pericenter": 13.9816,
        "meta_mean_anomaly": 161.7419,
        "meta_ephemeris_type": 0,
        "meta_classification_type": "U",
        "meta_norad_cat_id": 34913,
        "meta_element_set_no": 999,
        "meta_rev_at_epoch": 65313,
        "meta_bstar": 4.3870278e-05,
        "meta_mean_motion_dot": 9.8e-07,
        "meta_mean_motion_ddot": 0,
        "tle_line1": "1 34913U 93036ADJ 25355.50042063  .00000098  00000+0  43870-4 0  9993",
        "tle_line2": "2 34913  74.0285 266.4434 0020704  13.9816 161.7419 14.34639943653131"
      },
      "geometry": {
        "type": "Point",
        "coordinates": [
          88.4812286396831,
          -21.622036366425963
        ]
      }
    },
    {
      "type": "Feature",
      "properties": {
        "norad_id": 34918,
        "name": "COSMOS 2251 DEB",
        "group": "cosmos-2251-debris",
        "lat": -16.020024824562057,
        "lon": -72.45855797732183,
        "alt_km": 691.3744993464152,
        "timestamp": "2025-12-23T22:42:33.381287+00:00",
        "meta_object_name": "COSMOS 2251 DEB",
        "meta_object_id": "1993-036ADP",
        "meta_epoch": "2025-12-23T05:01:23.280672",
        "meta_mean_motion": 14.61362861,
        "meta_eccentricity": 0.00329588,
        "meta_inclination": 74.0717,
        "meta_ra_of_asc_node": 293.6504,
        "meta_arg_of_pericenter": 259.358,
        "meta_mean_anomaly": 168.4048,
        "meta_ephemeris_type": 0,
        "meta_classification_type": "U",
        "meta_norad_cat_id": 34918,
        "meta_element_set_no": 999,
        "meta_rev_at_epoch": 65489,
        "meta_bstar": 0.0017536623,
        "meta_mean_motion_dot": 8.719e-05,
        "meta_mean_motion_ddot": 0,
        "tle_line1": "1 34918U 93036ADP 25357.20929723  .00008719  00000+0  17537-2 0  9991",
        "tle_line2": "2 34918  74.0717 293.6504 0032958 259.3580 168.4048 14.61362861654892"
      },
      "geometry": {
        "type": "Point",
        "coordinates": [
          -72.45855797732183,
          -16.020024824562057
        ]
      }
    },
    {
      "type": "Feature",
      "properties": {
        "norad_id": 34924,
        "name": "COSMOS 2251 DEB",
        "group": "cosmos-2251-debris",
        "lat": -64.06071023356124,
        "lon": 32.03084075020934,
        "alt_km": 728.9340750704632,
        "timestamp": "2025-12-23T22:42:33.381297+00:00",
        "meta_object_name": "COSMOS 2251 DEB",
        "meta_object_id": "1993-036ADV",
        "meta_epoch": "2025-12-22T09:46:44.969952",
        "meta_mean_motion": 14.60110049,
        "meta_eccentricity": 0.0053569,
        "meta_inclination": 74.0407,
        "meta_ra_of_asc_node": 71.0027,
        "meta_arg_of_pericenter": 153.2205,
        "meta_mean_anomaly": 332.1375,
        "meta_ephemeris_type": 0,
        "meta_classification_type": "U",
        "meta_norad_cat_id": 34924,
        "meta_element_set_no": 999,
        "meta_rev_at_epoch": 87864,
        "meta_bstar": 0.00085018675,
        "meta_mean_motion_dot": 4.145e-05,
        "meta_mean_motion_ddot": 0,
        "tle_line1": "1 34924U 93036ADV 25356.40746493  .00004145  00000+0  85019-3 0  9990",
        "tle_line2": "2 34924  74.0407  71.0027 0053569 153.2205 332.1375 14.60110049878642"
      },
      "geometry": {
        "type": "Point",
        "coordinates": [
          32.03084075020934,
          -64.06071023356124
        ]
      }
    }
  ]
}